[{"OBJECT_NAME":"ONEWEB-0620","OBJECT_ID":"2023-004X","EPOCH":"2026-03-09T22:51:28.891008","MEAN_MOTION":13.11417395,"ECCENTRICITY":0.00021399,"INCLINATION":87.8859,"RA_OF_ASC_NODE":40.8095,"ARG_OF_PERICENTER":80.0166,"MEAN_ANOMALY":280.1204,"EPHEMERIS_TYPE":0,"CLASSIFICATION_TYPE":"U","NORAD_CAT_ID":55161,"ELEMENT_SET_NO":999,"REV_AT_EPOCH":15282,"BSTAR":-0.0011976443,"MEAN_MOTION_DOT":-4.12e-6,"MEAN_MOTION_DDOT":0},{"OBJECT_NAME":"DELTA 1 DEB","OBJECT_ID":"1975-052LZ","EPOCH":"2026-03-09T22:38:25.486656","MEAN_MOTION":13.45203955,"ECCENTRICITY":0.02148763,"INCLINATION":99.8057,"RA_OF_ASC_NODE":240.4217,"ARG_OF_PERICENTER":312.3877,"MEAN_ANOMALY":202.8711,"EPHEMERIS_TYPE":0,"CLASSIFICATION_TYPE":"U","NORAD_CAT_ID":42640,"ELEMENT_SET_NO":999,"REV_AT_EPOCH":60270,"BSTAR":0.00085702682,"MEAN_MOTION_DOT":5.36e-6,"MEAN_MOTION_DDOT":0}]
